CCSDS_OMM_VERS,COMMENT,CREATION_DATE,ORIGINATOR,OBJECT_NAME,OBJECT_ID,CENTER_NAME,REF_FRAME,TIME_SYSTEM,MEAN_ELEMENT_THEORY,EPOCH,MEAN_MOTION,ECCENTRICITY,INCLINATION,RA_OF_ASC_NODE,ARG_OF_PERICENTER,MEAN_ANOMALY,EPHEMERIS_TYPE,CLASSIFICATION_TYPE,NORAD_CAT_ID,ELEMENT_SET_NO,REV_AT_EPOCH,BSTAR,MEAN_MOTION_DOT,MEAN_MOTION_DDOT,SEMIMAJOR_AXIS,PERIOD,APOAPSIS,PERIAPSIS,OBJECT_TYPE,RCS_SIZE,COUNTRY_CODE,LAUNCH_DATE,SITE,DECAY_DATE,FILE,GP_ID,TLE_LINE0,TLE_LINE1,TLE_LINE2
"2.0","GENERATED VIA SPACE-TRACK.ORG API","2023-01-03T00:06:13","18 SPCS","ARIANE 44LP DEB","1989-062H","EARTH","TEME","UTC","SGP4","2023-01-02T19:14:21.049728","2.99650222","0.66776470","7.6964","15.2987","212.4076","79.0143","0","U","25844","999","24493","0.00368780000000","0.00002956","0.0000000000000","20323.201","480.560","27516.182","373.950","DEBRIS","MEDIUM","FR","1989-08-08","FRGUI","","3729714","222037909","0 ARIANE 44LP DEB","1 25844U 89062H   23002.80163252  .00002956  00000-0  36878-2 0  9998","2 25844   7.6964  15.2987 6677647 212.4076  79.0143  2.99650222244937"
"2.0","GENERATED VIA SPACE-TRACK.ORG API","2023-01-01T17:55:23","18 SPCS","ARIANE 44LP DEB","1989-062H","EARTH","TEME","UTC","SGP4","2023-01-01T11:16:20.844480","2.99641536","0.66778970","7.6938","16.0316","210.9500","82.2139","0","U","25844","999","24493","0.00380790000000","0.00002984","0.0000000000000","20323.593","480.574","27517.345","373.572","DEBRIS","MEDIUM","FR","1989-08-08","FRGUI","","3728759","221916390","0 ARIANE 44LP DEB","1 25844U 89062H   23001.46968570  .00002984  00000-0  38079-2 0  9991","2 25844   7.6938  16.0316 6677897 210.9500  82.2139  2.99641536244934"
"2.0","GENERATED VIA SPACE-TRACK.ORG API","2023-01-02T02:38:49","18 SPCS","ARIANE 44LP DEB","1989-062H","EARTH","TEME","UTC","SGP4","2023-01-01T19:15:50.005440","2.99644266","0.66778100","7.6945","15.8483","211.3146","81.3998","0","U","25844","999","24494","0.00406490000000","0.00003213","0.0000000000000","20323.470","480.570","27516.962","373.708","DEBRIS","MEDIUM","FR","1989-08-08","FRGUI","","3728952","221973250","0 ARIANE 44LP DEB","1 25844U 89062H   23001.80266210  .00003213  00000-0  40649-2 0  9993","2 25844   7.6945  15.8483 6677810 211.3146  81.3998  2.99644266244947"
"2.0","GENERATED VIA SPACE-TRACK.ORG API","2023-01-02T17:42:09","18 SPCS","ARIANE 44LP DEB","1989-062H","EARTH","TEME","UTC","SGP4","2023-01-02T11:14:50.120160","2.99648063","0.66776950","7.6958","15.4817","212.0436","79.7996","0","U","25844","999","24496","0.00368080000000","0.00002930","0.0000000000000","20323.298","480.564","27516.442","373.885","DEBRIS","MEDIUM","FR","1989-08-08","FRGUI","","3729583","222015553","0 ARIANE 44LP DEB","1 25844U 89062H   23002.46863565  .00002930  00000-0  36808-2 0  9999","2 25844   7.6958  15.4817 6677695 212.0436  79.7996  2.99648063244969"
"2.0","GENERATED VIA SPACE-TRACK.ORG API","2023-01-01T08:46:13","18 SPCS","ARIANE 44LP DEB","1989-062H","EARTH","TEME","UTC","SGP4","2023-01-01T03:16:52.198464","2.99639531","0.66779580","7.6932","16.2150","210.5854","83.0382","0","U","25844","999","24488","0.00402300000000","0.00003148","0.0000000000000","20323.684","480.577","27517.620","373.478","DEBRIS","MEDIUM","FR","1989-08-08","FRGUI","","3728331","221899218","0 ARIANE 44LP DEB","1 25844U 89062H   23001.13671526  .00003148  00000-0  40230-2 0  9992","2 25844   7.6932  16.2150 6677958 210.5854  83.0382  2.99639531244887"
"2.0","GENERATED VIA SPACE-TRACK.ORG API","2023-01-04T03:14:03","18 SPCS","MOLNIYA 3-50","1999-036A","EARTH","TEME","UTC","SGP4","2023-01-02T20:44:22.861536","2.00649658","0.73220710","63.2963","304.1460","282.5485","11.0183","0","U","25847","999","17211","-0.00103480000000","-0.00000373","0.0000000000000","26552.753","717.669","39616.733","732.504","PAYLOAD","LARGE","CIS","1999-07-08","PKMTR","","3730926","222097150","0 MOLNIYA 3-50","1 25847U 99036A   23002.86415349 -.00000373  00000-0 -10348-2 0  9993","2 25847  63.2963 304.1460 7322071 282.5485  11.0183  2.00649658172117"
"2.0","GENERATED VIA SPACE-TRACK.ORG API","2023-01-02T02:38:49","18 SPCS","MOLNIYA 3-50","1999-036A","EARTH","TEME","UTC","SGP4","2023-01-01T20:49:01.396992","2.00650150","0.73225360","63.2959","304.2921","282.5478","11.0060","0","U","25847","999","17209","-0.00067197000000","-0.00000393","0.0000000000000","26552.710","717.667","39617.892","731.257","PAYLOAD","LARGE","CIS","1999-07-08","PKMTR","","3728952","221974501","0 MOLNIYA 3-50","1 25847U 99036A   23001.86737728 -.00000393  00000-0 -67197-3 0  9997","2 25847  63.2959 304.2921 7322536 282.5478  11.0060  2.00650150172093"
"2.0","GENERATED VIA SPACE-TRACK.ORG API","2023-01-02T17:42:09","18 SPCS","MOLNIYA 3-50","1999-036A","EARTH","TEME","UTC","SGP4","2023-01-01T20:49:01.416864","2.00650158","0.73225280","63.2957","304.2925","282.5468","11.0065","0","U","25847","999","17209","-0.00077983000000","-0.00000395","0.0000000000000","26552.709","717.667","39617.870","731.279","PAYLOAD","LARGE","CIS","1999-07-08","PKMTR","","3729583","222016292","0 MOLNIYA 3-50","1 25847U 99036A   23001.86737751 -.00000395  00000-0 -77983-3 0  9999","2 25847  63.2957 304.2925 7322528 282.5468  11.0065  2.00650158172098"
"2.0","GENERATED VIA SPACE-TRACK.ORG API","2023-01-02T14:46:14","18 SPCS","SL-6 R/B(2)","1999-036D","EARTH","TEME","UTC","SGP4","2023-01-01T22:11:35.363904","1.96677189","0.74580640","63.0974","7.7339","282.2483","10.0926","0","U","25850","999","16867","0.00094821000000","-0.00001030","0.0000000000000","26909.100","732.164","40599.945","461.986","ROCKET BODY","LARGE","CIS","1999-07-08","PKMTR","","3729353","222002813","0 SL-6 R/B(2)","1 25850U 99036D   23001.92471486 -.00001030  00000-0  94821-3 0  9996","2 25850  63.0974   7.7339 7458064 282.2483  10.0926  1.96677189168673"
"2.0","GENERATED VIA SPACE-TRACK.ORG API","2023-01-02T17:42:09","18 SPCS","SL-6 R/B(2)","1999-036D","EARTH","TEME","UTC","SGP4","2023-01-01T22:11:35.363904","1.96677189","0.74580640","63.0974","7.7339","282.2483","10.0926","0","U","25850","999","16852","0.00094821000000","-0.00001030","0.0000000000000","26909.100","732.164","40599.945","461.986","ROCKET BODY","LARGE","CIS","1999-07-08","PKMTR","","3729583","222014551","0 SL-6 R/B(2)","1 25850U 99036D   23001.92471486 -.00001030  00000-0  94821-3 0  9996","2 25850  63.0974   7.7339 7458064 282.2483  10.0926  1.96677189168527"
"2.0","GENERATED VIA SPACE-TRACK.ORG API","2023-01-04T03:14:03","18 SPCS","SL-6 R/B(2)","1999-036D","EARTH","TEME","UTC","SGP4","2023-01-02T22:35:54.950208","1.96674215","0.74579180","63.0983","7.5740","282.2549","10.0864","0","U","25850","999","16854","0.00078033000000","-0.00000795","0.0000000000000","26909.372","732.175","40600.025","462.448","ROCKET BODY","LARGE","CIS","1999-07-08","PKMTR","","3730926","222097400","0 SL-6 R/B(2)","1 25850U 99036D   23002.94160822 -.00000795  00000-0  78033-3 0  9992","2 25850  63.0983   7.5740 7457918 282.2549  10.0864  1.96674215168541"
"2.0","GENERATED VIA SPACE-TRACK.ORG API","2023-01-02T17:42:09","18 SPCS","SL-12 R/B(2)","1999-053D","EARTH","TEME","UTC","SGP4","2023-01-02T13:43:31.891296","1.89347913","0.53430160","16.8643","90.9271","21.8181","27.2531","0","U","25927","999","16053","0.00000000000000","-0.00000162","0.0000000000000","27599.094","760.505","35967.199","6474.719","ROCKET BODY","LARGE","CIS","1999-09-26","TTMTR","","3729583","222014556","0 SL-12 R/B(2)","1 25927U 99053D   23002.57189689 -.00000162  00000-0  00000-0 0  9991","2 25927  16.8643  90.9271 5343016  21.8181  27.2531  1.89347913160536"
"2.0","GENERATED VIA SPACE-TRACK.ORG API","2023-01-02T23:26:13","18 SPCS","SL-12 R/B(2)","1999-053D","EARTH","TEME","UTC","SGP4","2023-01-02T13:43:31.891296","1.89347913","0.53430160","16.8643","90.9271","21.8181","27.2531","0","U","25927","999","16097","0.00000000000000","-0.00000162","0.0000000000000","27599.094","760.505","35967.199","6474.719","ROCKET BODY","LARGE","CIS","1999-09-26","TTMTR","","3729682","222037013","0 SL-12 R/B(2)","1 25927U 99053D   23002.57189689 -.00000162  00000-0  00000+0 0  9990","2 25927  16.8643  90.9271 5343016  21.8181  27.2531  1.89347913160974"
"2.0","GENERATED VIA SPACE-TRACK.ORG API","2023-01-01T17:55:23","18 SPCS","SL-12 R/B(2)","1999-053D","EARTH","TEME","UTC","SGP4","2023-01-01T12:08:27.256992","1.89348106","0.53432080","16.8615","91.0458","21.5934","20.6011","0","U","25927","999","16051","0.00000000000000","-0.00000183","0.0000000000000","27599.075","760.504","35967.700","6474.180","ROCKET BODY","LARGE","CIS","1999-09-26","TTMTR","","3728759","221916896","0 SL-12 R/B(2)","1 25927U 99053D   23001.50587103 -.00000183  00000-0  00000-0 0  9999","2 25927  16.8615  91.0458 5343208  21.5934  20.6011  1.89348106160513"
"2.0","GENERATED VIA SPACE-TRACK.ORG API","2023-01-03T07:46:14","18 SPCS","ARIANE 44LP DEB","1991-015J","EARTH","TEME","UTC","SGP4","2023-01-02T21:44:40.336224","2.89875170","0.66492810","7.5320","203.1333","251.4233","29.3621","0","U","25928","999","26241","0.00254430000000","0.00000219","0.0000000000000","20777.558","496.766","28215.005","583.841","DEBRIS","MEDIUM","FR","1991-03-02","FRGUI","","3730186","222073876","0 ARIANE 44LP DEB","1 25928U 91015J   23002.90602241  .00000219  00000-0  25443-2 0  9995","2 25928   7.5320 203.1333 6649281 251.4233  29.3621  2.89875170262411"
"2.0","GENERATED VIA SPACE-TRACK.ORG API","2023-01-04T03:14:03","18 SPCS","ARIANE 44LP DEB","1991-015J","EARTH","TEME","UTC","SGP4","2023-01-02T21:44:40.336224","2.89875170","0.66492810","7.5320","203.1333","251.4233","29.3621","0","U","25928","999","26243","0.00254430000000","0.00000219","0.0000000000000","20777.558","496.766","28215.005","583.841","DEBRIS","MEDIUM","FR","1991-03-02","FRGUI","","3730926","222097635","0 ARIANE 44LP DEB","1 25928U 91015J   23002.90602241  .00000219  00000-0  25443-2 0  9995","2 25928   7.5320 203.1333 6649281 251.4233  29.3621  2.89875170262433"
